{"type": "FeatureCollection", "features": [ {"type": "Feature", "properties": {"norad_id": 43566, "name": "GSAT0219 (GALILEO 23)", "group": "gnss", "lat": 28.43168707213666, "lon": 7.4541621587003055, "alt_km": 23223.877803468524, "timestamp": "2025-12-04T19:33:59.850493+00:00", "meta": {"OBJECT_NAME": "GSAT0219 (GALILEO 23)", "OBJECT_ID": "2018-060C", "EPOCH": "2025-12-03T14:03:42.727680", "MEAN_MOTION": 1.70475586, "ECCENTRICITY": 0.00058261, "INCLINATION": 57.2326, "RA_OF_ASC_NODE": 347.0697, "ARG_OF_PERICENTER": 286.7572, "MEAN_ANOMALY": 73.2143, "EPHEMERIS_TYPE": 0, "CLASSIFICATION_TYPE": "U", "NORAD_CAT_ID": 43566, "ELEMENT_SET_NO": 999, "REV_AT_EPOCH": 4585, "BSTAR": 0, "MEAN_MOTION_DOT": -6.8e-07, "MEAN_MOTION_DDOT": 0}, "tle": {"line1": "1 43566U 18060C   25337.58591120 -.00000068  00000+0  00000+0 0  9993", "line2": "2 43566  57.2326 347.0697 0005826 286.7572  73.2143  1.70475586 45850"}}, "geometry": {"type": "Point", "coordinates": [7.4541621587003055, 28.43168707213666]}}, {"type": "Feature", "properties": {"norad_id": 43567, "name": "GSAT0220 (GALILEO 24)", "group": "gnss", "lat": -55.56440693608143, "lon": -122.9684374600603, "alt_km": 23211.17609213599, "timestamp": "2025-12-04T19:33:59.850505+00:00", "meta": {"OBJECT_NAME": "GSAT0220 (GALILEO 24)", "OBJECT_ID": "2018-060D", "EPOCH": "2025-12-01T11:03:06.852672", "MEAN_MOTION": 1.70475407, "ECCENTRICITY": 0.00061058, "INCLINATION": 57.2328, "RA_OF_ASC_NODE": 347.128, "ARG_OF_PERICENTER": 280.6549, "MEAN_ANOMALY": 79.3184, "EPHEMERIS_TYPE": 0, "CLASSIFICATION_TYPE": "U", "NORAD_CAT_ID": 43567, "ELEMENT_SET_NO": 999, "REV_AT_EPOCH": 4580, "BSTAR": 0, "MEAN_MOTION_DOT": -5.9e-07, "MEAN_MOTION_DDOT": 0}, "tle": {"line1": "1 43567U 18060D   25335.46049598 -.00000059  00000+0  00000+0 0  9996", "line2": "2 43567  57.2328 347.1280 0006105 280.6549  79.3184  1.70475407 45809"}}, "geometry": {"type": "Point", "coordinates": [-122.9684374600603, -55.56440693608143]}}, {"type": "Feature", "properties": {"norad_id": 43581, "name": "BEIDOU-3 M5 (C23)", "group": "gnss", "lat": 43.21034261455333, "lon": -128.16804404778122, "alt_km": 21520.76936894687, "timestamp": "2025-12-04T19:33:59.850515+00:00", "meta": {"OBJECT_NAME": "BEIDOU-3 M5 (C23)", "OBJECT_ID": "2018-062A", "EPOCH": "2025-12-03T02:50:25.082304", "MEAN_MOTION": 1.86228529, "ECCENTRICITY": 0.00021161, "INCLINATION": 54.0891, "RA_OF_ASC_NODE": 188.971, "ARG_OF_PERICENTER": 350.4308, "MEAN_ANOMALY": 9.6608, "EPHEMERIS_TYPE": 0, "CLASSIFICATION_TYPE": "U", "NORAD_CAT_ID": 43581, "ELEMENT_SET_NO": 999, "REV_AT_EPOCH": 4998, "BSTAR": 0, "MEAN_MOTION_DOT": 1.18e-06, "MEAN_MOTION_DDOT": 0}, "tle": {"line1": "1 43581U 18062A   25337.11834586  .00000118  00000+0  00000+0 0  9992", "line2": "2 43581  54.0891 188.9710 0002116 350.4308   9.6608  1.86228529 49989"}}, "geometry": {"type": "Point", "coordinates": [-128.16804404778122, 43.21034261455333]}}, {"type": "Feature", "properties": {"norad_id": 43582, "name": "BEIDOU-3 M6 (C24)", "group": "gnss", "lat": 24.131883391995313, "lon": -10.034990369154137, "alt_km": 21530.45312473639, "timestamp": "2025-12-04T19:33:59.850524+00:00", "meta": {"OBJECT_NAME": "BEIDOU-3 M6 (C24)", "OBJECT_ID": "2018-062B", "EPOCH": "2025-11-29T18:14:01.707936", "MEAN_MOTION": 1.86229617, "ECCENTRICITY": 0.00076529, "INCLINATION": 54.0888, "RA_OF_ASC_NODE": 189.0746, "ARG_OF_PERICENTER": 45.4041, "MEAN_ANOMALY": 314.7474, "EPHEMERIS_TYPE": 0, "CLASSIFICATION_TYPE": "U", "NORAD_CAT_ID": 43582, "ELEMENT_SET_NO": 999, "REV_AT_EPOCH": 4992, "BSTAR": 0, "MEAN_MOTION_DOT": 1.07e-06, "MEAN_MOTION_DDOT": 0}, "tle": {"line1": "1 43582U 18062B   25333.75974199  .00000107  00000+0  00000+0 0  9992", "line2": "2 43582  54.0888 189.0746 0007652  45.4041 314.7474  1.86229617 49926"}}, "geometry": {"type": "Point", "coordinates": [-10.034990369154137, 24.131883391995313]}}, {"type": "Feature", "properties": {"norad_id": 43602, "name": "BEIDOU-3 M12 (C26)", "group": "gnss", "lat": -9.210973540575461, "lon": 14.367371141138236, "alt_km": 21552.08972810133, "timestamp": "2025-12-04T19:33:59.850534+00:00", "meta": {"OBJECT_NAME": "BEIDOU-3 M12 (C26)", "OBJECT_ID": "2018-067A", "EPOCH": "2025-12-03T23:50:04.646976", "MEAN_MOTION": 1.86227631, "ECCENTRICITY": 0.00091416, "INCLINATION": 54.1831, "RA_OF_ASC_NODE": 187.6602, "ARG_OF_PERICENTER": 40.5881, "MEAN_ANOMALY": 319.5721, "EPHEMERIS_TYPE": 0, "CLASSIFICATION_TYPE": "U", "NORAD_CAT_ID": 43602, "ELEMENT_SET_NO": 999, "REV_AT_EPOCH": 4948, "BSTAR": 0, "MEAN_MOTION_DOT": 1.1e-06, "MEAN_MOTION_DDOT": 0}, "tle": {"line1": "1 43602U 18067A   25337.99310934  .00000110  00000+0  00000+0 0  9995", "line2": "2 43602  54.1831 187.6602 0009141  40.5881 319.5721  1.86227631 49489"}}, "geometry": {"type": "Point", "coordinates": [14.367371141138236, -9.210973540575461]}}, {"type": "Feature", "properties": {"norad_id": 43603, "name": "BEIDOU-3 M11 (C25)", "group": "gnss", "lat": 52.6787704769542, "lon": -63.747300408727575, "alt_km": 21515.6536584433, "timestamp": "2025-12-04T19:33:59.850544+00:00", "meta": {"OBJECT_NAME": "BEIDOU-3 M11 (C25)", "OBJECT_ID": "2018-067B", "EPOCH": "2025-12-03T01:17:17.799072", "MEAN_MOTION": 1.86227129, "ECCENTRICITY": 0.0005566, "INCLINATION": 54.1806, "RA_OF_ASC_NODE": 187.6562, "ARG_OF_PERICENTER": 36.1126, "MEAN_ANOMALY": 324.0194, "EPHEMERIS_TYPE": 0, "CLASSIFICATION_TYPE": "U", "NORAD_CAT_ID": 43603, "ELEMENT_SET_NO": 999, "REV_AT_EPOCH": 4949, "BSTAR": 0, "MEAN_MOTION_DOT": 1.19e-06, "MEAN_MOTION_DDOT": 0}, "tle": {"line1": "1 43603U 18067B   25337.05367823  .00000119  00000+0  00000+0 0  9991", "line2": "2 43603  54.1806 187.6562 0005566  36.1126 324.0194  1.86227129 49495"}}, "geometry": {"type": "Point", "coordinates": [-63.747300408727575, 52.6787704769542]}}, {"type": "Feature", "properties": {"norad_id": 43622, "name": "BEIDOU-3 M13 (C32)", "group": "gnss", "lat": 39.56388852047461, "lon": -144.09682511532668, "alt_km": 21538.803440491993, "timestamp": "2025-12-04T19:33:59.850554+00:00", "meta": {"OBJECT_NAME": "BEIDOU-3 M13 (C32)", "OBJECT_ID": "2018-072A", "EPOCH": "2025-12-03T13:07:53.541408", "MEAN_MOTION": 1.86230692, "ECCENTRICITY": 0.00056735, "INCLINATION": 56.4512, "RA_OF_ASC_NODE": 69.1249, "ARG_OF_PERICENTER": 298.6305, "MEAN_ANOMALY": 61.3164, "EPHEMERIS_TYPE": 0, "CLASSIFICATION_TYPE": "U", "NORAD_CAT_ID": 43622, "ELEMENT_SET_NO": 999, "REV_AT_EPOCH": 4901, "BSTAR": 0, "MEAN_MOTION_DOT": -5e-07, "MEAN_MOTION_DDOT": 0}, "tle": {"line1": "1 43622U 18072A   25337.54714747 -.00000050  00000+0  00000+0 0  9998", "line2": "2 43622  56.4512  69.1249 0005673 298.6305  61.3164  1.86230692 49019"}}, "geometry": {"type": "Point", "coordinates": [-144.09682511532668, 39.56388852047461]}}, {"type": "Feature", "properties": {"norad_id": 43623, "name": "BEIDOU-3 M14 (C33)", "group": "gnss", "lat": -32.7088094536008, "lon": -85.7420763748978, "alt_km": 21535.873189352005, "timestamp": "2025-12-04T19:33:59.850565+00:00", "meta": {"OBJECT_NAME": "BEIDOU-3 M14 (C33)", "OBJECT_ID": "2018-072B", "EPOCH": "2025-12-01T19:14:30.937344", "MEAN_MOTION": 1.86230707, "ECCENTRICITY": 0.00030488, "INCLINATION": 56.4513, "RA_OF_ASC_NODE": 69.1766, "ARG_OF_PERICENTER": 335.7773, "MEAN_ANOMALY": 24.2115, "EPHEMERIS_TYPE": 0, "CLASSIFICATION_TYPE": "U", "NORAD_CAT_ID": 43623, "ELEMENT_SET_NO": 999, "REV_AT_EPOCH": 4897, "BSTAR": 0, "MEAN_MOTION_DOT": -4.3e-07, "MEAN_MOTION_DDOT": 0}, "tle": {"line1": "1 43623U 18072B   25335.80174696 -.00000043  00000+0  00000+0 0  9991", "line2": "2 43623  56.4513  69.1766 0003048 335.7773  24.2115  1.86230707 48976"}}, "geometry": {"type": "Point", "coordinates": [-85.7420763748978, -32.7088094536008]}}, {"type": "Feature", "properties": {"norad_id": 43647, "name": "BEIDOU-3 M16 (C35)", "group": "gnss", "lat": 47.538039179527665, "lon": 74.94204998621677, "alt_km": 21524.33451996013, "timestamp": "2025-12-04T19:33:59.850574+00:00", "meta": {"OBJECT_NAME": "BEIDOU-3 M16 (C35)", "OBJECT_ID": "2018-078A", "EPOCH": "2025-12-03T00:48:25.625088", "MEAN_MOTION": 1.86232114, "ECCENTRICITY": 0.00069753, "INCLINATION": 54.271, "RA_OF_ASC_NODE": 306.8606, "ARG_OF_PERICENTER": 18.45, "MEAN_ANOMALY": 341.5609, "EPHEMERIS_TYPE": 0, "CLASSIFICATION_TYPE": "U", "NORAD_CAT_ID": 43647, "ELEMENT_SET_NO": 999, "REV_AT_EPOCH": 4850, "BSTAR": 0, "MEAN_MOTION_DOT": -6.5e-07, "MEAN_MOTION_DDOT": 0}, "tle": {"line1": "1 43647U 18078A   25337.03362992 -.00000065  00000+0  00000+0 0  9992", "line2": "2 43647  54.2710 306.8606 0006975  18.4500 341.5609  1.86232114 48502"}}, "geometry": {"type": "Point", "coordinates": [74.94204998621677, 47.538039179527665]}}, {"type": "Feature", "properties": {"norad_id": 43648, "name": "BEIDOU-3 M15 (C34)", "group": "gnss", "lat": 22.328503143723662, "lon": -36.03366385338817, "alt_km": 21515.493417514917, "timestamp": "2025-12-04T19:33:59.850585+00:00", "meta": {"OBJECT_NAME": "BEIDOU-3 M15 (C34)", "OBJECT_ID": "2018-078B", "EPOCH": "2025-12-01T00:21:40.976640", "MEAN_MOTION": 1.86232, "ECCENTRICITY": 0.0003569, "INCLINATION": 54.2686, "RA_OF_ASC_NODE": 306.9322, "ARG_OF_PERICENTER": 17.0419, "MEAN_ANOMALY": 342.9634, "EPHEMERIS_TYPE": 0, "CLASSIFICATION_TYPE": "U", "NORAD_CAT_ID": 43648, "ELEMENT_SET_NO": 999, "REV_AT_EPOCH": 4848, "BSTAR": 0, "MEAN_MOTION_DOT": -5.6e-07, "MEAN_MOTION_DDOT": 0}, "tle": {"line1": "1 43648U 18078B   25335.01505760 -.00000056  00000+0  00000+0 0  9991", "line2": "2 43648  54.2686 306.9322 0003569  17.0419 342.9634  1.86232000 48485"}}, "geometry": {"type": "Point", "coordinates": [-36.03366385338817, 22.328503143723662]}}]}